OBJECT_NAME,OBJECT_ID,EPOCH,MEAN_MOTION,ECCENTRICITY,INCLINATION,RA_OF_ASC_NODE,ARG_OF_PERICENTER,MEAN_ANOMALY,EPHEMERIS_TYPE,CLASSIFICATION_TYPE,NORAD_CAT_ID,ELEMENT_SET_NO,REV_AT_EPOCH,BSTAR,MEAN_MOTION_DOT,MEAN_MOTION_DDOT
SL-8 R/B,1985-006B,2026-07-04T01:54:49.548960,14.37841294,.00192317,74.0454,46.9783,291.6014,221.5270,0,U,15483,999,17075,.65687786E-4,.172E-5,0
SL-12 R/B(2),1985-042D,2026-07-04T00:55:54.824736,14.22009141,.00370736,71.1061,201.9126,302.5774,87.7452,0,U,15772,999,13093,.42159122E-4,.46E-6,0
SL-14 R/B,1985-069B,2026-07-04T06:24:01.770624,14.86529201,.00192787,82.5272,275.3036,161.7403,198.4510,0,U,15945,999,19015,.55981625E-4,.522E-5,0
SL-16 R/B,1985-097B,2026-07-04T05:00:02.819808,14.16614397,.0005256,71.0027,255.2436,73.7746,316.1790,0,U,16182,999,10373,-.64274399E-4,-.176E-5,0
SL-14 R/B,1986-006B,2026-07-03T09:41:29.075136,14.86960595,.00747807,82.5273,150.8526,248.6111,110.7116,0,U,16496,999,16640,.56157325E-4,.554E-5,0
COSMOS 1743,1986-034A,2026-07-04T01:28:48.479808,15.68575775,.00048857,82.5285,310.7704,212.2065,147.8899,0,U,16719,999,19843,.62805514E-3,.71609E-3,0
SL-14 R/B,1986-046B,2026-07-03T10:50:41.070336,14.85683339,.00224789,82.4830,330.8056,201.9347,158.0910,0,U,16792,999,14359,.56596394E-4,.517E-5,0
SL-14 R/B,1986-055B,2026-07-04T01:36:05.904000,14.85734648,.00176673,82.5198,17.2612,310.2530,202.0232,0,U,16882,999,13664,.48805831E-4,.449E-5,0
AJISAI (EGS),1986-061A,2026-07-04T06:22:34.630176,12.44516694,.00111231,50.0092,94.8792,223.9845,316.8420,0,U,16908,999,48251,.96159841E-4,-.84E-6,0
SL-14 R/B,1987-024B,2026-07-04T04:24:38.655072,14.86225481,.00169911,82.5288,343.2732,231.9759,127.9925,0,U,17567,999,10543,.55122994E-4,.509E-5,0
COSMOS 1833,1987-027A,2026-07-03T22:56:53.471616,14.13061920,.00234883,70.9210,81.6229,27.1457,333.0886,0,U,17589,999,2674,.15529015E-3,.243E-5,0
SL-16 R/B,1987-027B,2026-07-03T20:58:31.451232,14.17175054,.00070439,71.0033,31.6648,294.2557,65.7830,0,U,17590,999,3180,-.9362838E-5,-.67E-6,0
SL-14 R/B,1987-038B,2026-07-03T10:19:45.556896,14.85455342,.00202691,82.5003,187.7717,138.5668,221.7089,0,U,17912,999,9641,.48302621E-4,.442E-5,0
COSMOS 1844,1987-041A,2026-07-04T03:34:47.532864,14.14573879,.0032003,70.8981,148.5282,210.8831,149.0410,0,U,17973,999,2005,.2357957E-3,.407E-5,0
SL-14 R/B,1987-055B,2026-07-04T03:03:55.982592,14.85722047,.00203094,82.4981,239.2599,352.9326,7.1601,0,U,18153,999,8722,.44077385E-4,.408E-5,0
COSMOS 1867,1987-060A,2026-07-04T04:18:10.072800,14.31517673,.00169003,65.0119,340.4704,282.1372,77.7819,0,U,18187,999,3661,.22181862E-4,-.41E-6,0
SL-14 R/B,1988-001B,2026-07-04T04:45:33.340320,14.85621457,.00171788,82.5131,85.7702,208.7701,151.2570,0,U,18749,999,5932,.50352075E-4,.461E-5,0
COSMOS 1933,1988-020A,2026-07-03T20:06:59.921856,15.18825591,.00051869,82.5136,135.9455,135.5935,224.5716,0,U,18958,999,6785,.1916594E-3,.402E-4,0
SL-3 R/B,1988-032B,2026-07-04T03:38:40.139808,15.20966577,.0025361,97.5266,168.1771,183.4935,176.6127,0,U,19046,999,6980,.22936758E-3,.5052E-4,0
SL-16 R/B,1988-039B,2026-07-04T05:50:08.117664,14.19631397,.00212272,71.0128,182.0926,166.9089,193.2592,0,U,19120,999,97492,.86579602E-4,.135E-5,0
COSMOS 1953,1988-050A,2026-07-04T00:31:57.247104,15.30211795,.00122921,82.5064,41.0541,75.0341,285.2259,0,U,19210,999,5556,.31096291E-3,.9141E-4,0
SL-8 R/B,1988-053B,2026-07-04T04:04:34.432608,14.38974406,.00193519,74.0473,257.7532,46.8546,334.3014,0,U,19257,999,99335,.84212392E-4,.234E-5,0
COSMOS 1975,1988-093A,2026-07-04T05:31:55.241472,15.29553367,.00124756,82.5194,0.5537,116.4143,243.8379,0,U,19573,999,3721,.33449016E-3,.9635E-4,0
SL-14 R/B,1988-093B,2026-07-04T01:31:00.392736,14.85754509,.00210132,82.5320,292.8017,17.3187,155.4325,0,U,19574,999,1829,.52421031E-4,.481E-5,0
SL-16 R/B,1988-102B,2026-07-04T04:03:55.254528,14.16169590,.00148911,71.0001,266.4067,201.9724,158.0763,0,U,19650,999,94338,.8185761E-5,-.32E-6,0
INTERCOSMOS 24,1989-080A,2026-07-04T06:00:45.817920,12.59685235,.11877635,82.6048,28.5404,22.3434,342.5235,0,U,20261,999,68147,.20028333E-3,.699E-5,0
SL-14 R/B,1989-080C,2026-07-04T04:50:59.329248,12.50576539,.12284093,82.5942,98.3763,278.4522,67.9503,0,U,20262,999,67471,.50113664E-4,.165E-5,0
DELTA 1 R/B,1989-089B,2026-07-04T06:07:58.570464,14.50742620,.00704287,97.0634,14.0823,113.7786,247.0819,0,U,20323,999,91263,.10513289E-3,.392E-5,0
ARIANE 40 R/B,1990-005H,2026-07-04T01:39:46.624896,14.39936511,.00095256,98.2950,242.1599,208.0095,152.0583,0,U,20443,999,90955,.10808458E-3,.298E-5,0
DELTA 2 R/B(1),1990-008B,2026-07-04T05:31:19.325856,15.71671791,.00636623,35.6001,121.4149,274.1290,85.2177,0,U,20453,999,94438,.88354466E-3,.135684E-2,0
