SL-8 R/B                
1 15483U 85006B   26185.07974015  .00000172  00000+0  65688-4 0  9991
2 15483  74.0454  46.9783 0019231 291.6014 221.5270 14.37841294170755
SL-12 R/B(2)            
1 15772U 85042D   26185.03882899  .00000046  00000+0  42159-4 0  9994
2 15772  71.1061 201.9126 0037073 302.5774  87.7452 14.22009141130932
SL-14 R/B               
1 15945U 85069B   26185.26668716  .00000522  00000+0  55982-4 0  9997
2 15945  82.5272 275.3036 0019278 161.7403 198.4510 14.86529201190159
SL-16 R/B               
1 16182U 85097B   26185.20836597 -.00000176  00000+0 -64274-4 0  9991
2 16182  71.0027 255.2436 0005256  73.7746 316.1790 14.16614397103739
SL-14 R/B               
1 16496U 86006B   26184.40380874  .00000554  00000+0  56157-4 0  9992
2 16496  82.5273 150.8526 0074780 248.6111 110.7116 14.86960595166408
COSMOS 1743             
1 16719U 86034A   26185.06167222  .00071609  00000+0  62806-3 0  9990
2 16719  82.5285 310.7704 0004885 212.2065 147.8899 15.68575775198438
SL-14 R/B               
1 16792U 86046B   26184.45186424  .00000517  00000+0  56596-4 0  9991
2 16792  82.4830 330.8056 0022478 201.9347 158.0910 14.85683339143592
SL-14 R/B               
1 16882U 86055B   26185.06673500  .00000449  00000+0  48806-4 0  9994
2 16882  82.5198  17.2612 0017667 310.2530 202.0232 14.85734648136641
AJISAI (EGS)            
1 16908U 86061A   26185.26567859 -.00000084  00000+0  96160-4 0  9993
2 16908  50.0092  94.8792 0011123 223.9845 316.8420 12.44516694482518
SL-14 R/B               
1 17567U 87024B   26185.18378073  .00000509  00000+0  55123-4 0  9999
2 17567  82.5288 343.2732 0016991 231.9759 127.9925 14.86225481105436
COSMOS 1833             
1 17589U 87027A   26184.95617444  .00000243  00000+0  15529-3 0  9998
2 17589  70.9210  81.6229 0023488  27.1457 333.0886 14.13061920 26747
SL-16 R/B               
1 17590U 87027B   26184.87397513 -.00000067  00000+0 -93628-5 0  9997
2 17590  71.0033  31.6648 0007043 294.2557  65.7830 14.17175054 31800
SL-14 R/B               
1 17912U 87038B   26184.43038839  .00000442  00000+0  48303-4 0  9996
2 17912  82.5003 187.7717 0020269 138.5668 221.7089 14.85455342 96414
COSMOS 1844             
1 17973U 87041A   26185.14916126  .00000407  00000+0  23580-3 0  9990
2 17973  70.8981 148.5282 0032003 210.8831 149.0410 14.14573879 20058
SL-14 R/B               
1 18153U 87055B   26185.12773128  .00000408  00000+0  44077-4 0  9993
2 18153  82.4981 239.2599 0020309 352.9326   7.1601 14.85722047 87229
COSMOS 1867             
1 18187U 87060A   26185.17928325 -.00000041  00000+0  22182-4 0  9999
2 18187  65.0119 340.4704 0016900 282.1372  77.7819 14.31517673 36615
SL-14 R/B               
1 18749U 88001B   26185.19830255  .00000461  00000+0  50352-4 0  9990
2 18749  82.5131  85.7702 0017178 208.7701 151.2570 14.85621457 59322
COSMOS 1933             
1 18958U 88020A   26184.83819354  .00004020  00000+0  19166-3 0  9992
2 18958  82.5136 135.9455 0005186 135.5935 224.5716 15.18825591 67859
SL-3 R/B                
1 19046U 88032B   26185.15185347  .00005052  00000+0  22937-3 0  9994
2 19046  97.5266 168.1771 0025361 183.4935 176.6127 15.20966577 69809
SL-16 R/B               
1 19120U 88039B   26185.24314951  .00000135  00000+0  86580-4 0  9991
2 19120  71.0128 182.0926 0021227 166.9089 193.2592 14.19631397974921
COSMOS 1953             
1 19210U 88050A   26185.02219036  .00009141  00000+0  31096-3 0  9995
2 19210  82.5064  41.0541 0012292  75.0341 285.2259 15.30211795 55569
SL-8 R/B                
1 19257U 88053B   26185.16984297  .00000234  00000+0  84212-4 0  9995
2 19257  74.0473 257.7532 0019351  46.8546 334.3014 14.38974406993357
COSMOS 1975             
1 19573U 88093A   26185.23050048  .00009635  00000+0  33449-3 0  9995
2 19573  82.5194   0.5537 0012475 116.4143 243.8379 15.29553367 37210
SL-14 R/B               
1 19574U 88093B   26185.06319899  .00000481  00000+0  52421-4 0  9991
2 19574  82.5320 292.8017 0021013  17.3187 155.4325 14.85754509 18294
SL-16 R/B               
1 19650U 88102B   26185.16938952 -.00000032  00000+0  81858-5 0  9995
2 19650  71.0001 266.4067 0014891 201.9724 158.0763 14.16169590943380
INTERCOSMOS 24          
1 20261U 89080A   26185.25053030  .00000699  00000+0  20028-3 0  9994
2 20261  82.6048  28.5404 1187763  22.3434 342.5235 12.59685235681471
SL-14 R/B               
1 20262U 89080C   26185.20207557  .00000165  00000+0  50114-4 0  9993
2 20262  82.5942  98.3763 1228409 278.4522  67.9503 12.50576539674714
DELTA 1 R/B             
1 20323U 89089B   26185.25553901  .00000392  00000+0  10513-3 0  9992
2 20323  97.0634  14.0823 0070428 113.7786 247.0819 14.50742620912636
ARIANE 40 R/B           
1 20443U 90005H   26185.06928964  .00000298  00000+0  10808-3 0  9991
2 20443  98.2950 242.1599 0009525 208.0095 152.0583 14.39936511909559
DELTA 2 R/B(1)          
1 20453U 90008B   26185.23008479  .00135684  00000+0  88354-3 0  9993
2 20453  35.6001 121.4149 0063662 274.1290  85.2177 15.71671791944384
